STARLINK-36789          
1 68118U 26044T   26094.83335647 -.01831828  00000+0 -37838-1 0  9992
2 68118  97.2850  56.1700 0002129  95.9634 112.9710 15.49325160  5558
STARLINK-36850          
1 68119U 26044U   26094.83335647 -.00746774  00000+0 -14742-1 0  9996
2 68119  97.2851  56.1711 0002168  91.5966 119.6016 15.49427857  5554
STARLINK-36868          
1 68120U 26044V   26094.83335647 -.01841755  00000+0 -37316-1 0  9996
2 68120  97.2848  56.1793 0002080  98.0035 133.1728 15.49889856  5556
STARLINK-36855          
1 68121U 26044W   26094.83335647 -.00010007  00000+0 -18260-3 0  9993
2 68121  97.2854  56.1665 0001648  97.5393 105.8009 15.49182097  5553
STARLINK-36366          
1 68122U 26044X   26094.83335647  .00003050  00000+0  57755-4 0  9995
2 68122  97.2852  56.1695 0001763  99.8086 112.3241 15.49174643  5602
STARLINK-36922          
1 68123U 26044Y   26094.83335647  .00149131  00000+0  27014-2 0  9990
2 68123  97.2851  56.1806 0001635  74.1933 163.1975 15.49090006  5609
STARLINK-36938          
1 68124U 26044Z   26094.84687846  .00178312  00000+0  11738-2 0  9992
2 68124  97.2862  56.3682 0001549  11.8244 348.3057 15.75145208  5605
STARLINK-36839          
1 68125U 26044AA  26094.83335647  .00148390  00000+0  26888-2 0  9996
2 68125  97.2851  56.1784 0001826  84.4322 147.8744 15.49083942  5552
ECHOSTAR 25             
1 68126U 26045A   26094.72121189  .00000059  00000+0  00000+0 0  9994
2 68126   0.0350 281.2850 0001729 153.5686 248.9587  1.00270991   251
ICOR SV                 
1 68127U 26046A   26094.89785642  .00536291  12315-4  59478-3 0  9990
2 68127 123.0717 326.0041 0085624 238.0093 121.2641 16.01613398  3775
FIREFLY ALPHA R/B       
1 68128U 26046B   26094.57761740  .00045538  00000+0  59832-3 0  9995
2 68128 123.0919 319.2288 0017350  30.6209 329.5861 15.57923912  3675
GUOWANG GROUP 20 OBJECT*
1 68129U 26047A   26094.10011014 -.00000088  00000+0  50705-4 0  9991
2 68129  50.0020 327.8486 0000661 106.3931 253.7037 13.82826474  3127
GUOWANG GROUP 20 OBJECT*
1 68130U 26047B   26091.21157936 -.00000062  00000+0  69791-4 0  9993
2 68130  50.0054 339.2252 0000133 185.6237 174.4659 13.87767313  2711
GUOWANG GROUP 20 OBJECT*
1 68131U 26047C   26092.50577046 -.00000096  00000+0  42136-4 0  9996
2 68131  50.0019 334.0677 0000669 236.5521 123.5312 13.86320500  2907
GUOWANG GROUP 20 OBJECT*
1 68132U 26047D   26092.57516225 -.00000084  00000+0  51916-4 0  9999
2 68132  50.0067 333.7806 0000710 245.0360 115.0463 13.86594040  2909
GUOWANG GROUP 20 OBJECT*
1 68133U 26047E   26093.00475373 -.00000089  00000+0  48671-4 0  9996
2 68133  50.0078 332.0369 0000826  23.1230 336.9704 13.85521979  2976
