[{"OBJECT_NAME":"STARLINK-36789","OBJECT_ID":"2026-044T","EPOCH":"2026-04-04T20:00:01.999008","MEAN_MOTION":15.4932516,"ECCENTRICITY":0.0002129,"INCLINATION":97.285,"RA_OF_ASC_NODE":56.17,"ARG_OF_PERICENTER":95.9634,"MEAN_ANOMALY":112.971,"EPHEMERIS_TYPE":0,"CLASSIFICATION_TYPE":"U","NORAD_CAT_ID":68118,"ELEMENT_SET_NO":999,"REV_AT_EPOCH":555,"BSTAR":-0.037838,"MEAN_MOTION_DOT":-0.01831828,"MEAN_MOTION_DDOT":0},{"OBJECT_NAME":"STARLINK-36850","OBJECT_ID":"2026-044U","EPOCH":"2026-04-04T20:00:01.999008","MEAN_MOTION":15.49427857,"ECCENTRICITY":0.0002168,"INCLINATION":97.2851,"RA_OF_ASC_NODE":56.1711,"ARG_OF_PERICENTER":91.5966,"MEAN_ANOMALY":119.6016,"EPHEMERIS_TYPE":0,"CLASSIFICATION_TYPE":"U","NORAD_CAT_ID":68119,"ELEMENT_SET_NO":999,"REV_AT_EPOCH":555,"BSTAR":-0.014742,"MEAN_MOTION_DOT":-0.00746774,"MEAN_MOTION_DDOT":0},{"OBJECT_NAME":"STARLINK-36868","OBJECT_ID":"2026-044V","EPOCH":"2026-04-04T20:00:01.999008","MEAN_MOTION":15.49889856,"ECCENTRICITY":0.000208,"INCLINATION":97.2848,"RA_OF_ASC_NODE":56.1793,"ARG_OF_PERICENTER":98.0035,"MEAN_ANOMALY":133.1728,"EPHEMERIS_TYPE":0,"CLASSIFICATION_TYPE":"U","NORAD_CAT_ID":68120,"ELEMENT_SET_NO":999,"REV_AT_EPOCH":555,"BSTAR":-0.037316,"MEAN_MOTION_DOT":-0.01841755,"MEAN_MOTION_DDOT":0},{"OBJECT_NAME":"STARLINK-36855","OBJECT_ID":"2026-044W","EPOCH":"2026-04-04T20:00:01.999008","MEAN_MOTION":15.49182097,"ECCENTRICITY":0.0001648,"INCLINATION":97.2854,"RA_OF_ASC_NODE":56.1665,"ARG_OF_PERICENTER":97.5393,"MEAN_ANOMALY":105.8009,"EPHEMERIS_TYPE":0,"CLASSIFICATION_TYPE":"U","NORAD_CAT_ID":68121,"ELEMENT_SET_NO":999,"REV_AT_EPOCH":555,"BSTAR":-0.0001826,"MEAN_MOTION_DOT":-0.00010007,"MEAN_MOTION_DDOT":0},{"OBJECT_NAME":"STARLINK-36366","OBJECT_ID":"2026-044X","EPOCH":"2026-04-04T20:00:01.999008","MEAN_MOTION":15.49174643,"ECCENTRICITY":0.0001763,"INCLINATION":97.2852,"RA_OF_ASC_NODE":56.1695,"ARG_OF_PERICENTER":99.8086,"MEAN_ANOMALY":112.3241,"EPHEMERIS_TYPE":0,"CLASSIFICATION_TYPE":"U","NORAD_CAT_ID":68122,"ELEMENT_SET_NO":999,"REV_AT_EPOCH":560,"BSTAR":5.7755e-5,"MEAN_MOTION_DOT":3.05e-5,"MEAN_MOTION_DDOT":0},{"OBJECT_NAME":"STARLINK-36922","OBJECT_ID":"2026-044Y","EPOCH":"2026-04-04T20:00:01.999008","MEAN_MOTION":15.49090006,"ECCENTRICITY":0.0001635,"INCLINATION":97.2851,"RA_OF_ASC_NODE":56.1806,"ARG_OF_PERICENTER":74.1933,"MEAN_ANOMALY":163.1975,"EPHEMERIS_TYPE":0,"CLASSIFICATION_TYPE":"U","NORAD_CAT_ID":68123,"ELEMENT_SET_NO":999,"REV_AT_EPOCH":560,"BSTAR":0.0027014,"MEAN_MOTION_DOT":0.00149131,"MEAN_MOTION_DDOT":0},{"OBJECT_NAME":"STARLINK-36938","OBJECT_ID":"2026-044Z","EPOCH":"2026-04-04T20:19:30.298944","MEAN_MOTION":15.75145208,"ECCENTRICITY":0.0001549,"INCLINATION":97.2862,"RA_OF_ASC_NODE":56.3682,"ARG_OF_PERICENTER":11.8244,"MEAN_ANOMALY":348.3057,"EPHEMERIS_TYPE":0,"CLASSIFICATION_TYPE":"U","NORAD_CAT_ID":68124,"ELEMENT_SET_NO":999,"REV_AT_EPOCH":560,"BSTAR":0.0011738,"MEAN_MOTION_DOT":0.00178312,"MEAN_MOTION_DDOT":0},{"OBJECT_NAME":"STARLINK-36839","OBJECT_ID":"2026-044AA","EPOCH":"2026-04-04T20:00:01.999008","MEAN_MOTION":15.49083942,"ECCENTRICITY":0.0001826,"INCLINATION":97.2851,"RA_OF_ASC_NODE":56.1784,"ARG_OF_PERICENTER":84.4322,"MEAN_ANOMALY":147.8744,"EPHEMERIS_TYPE":0,"CLASSIFICATION_TYPE":"U","NORAD_CAT_ID":68125,"ELEMENT_SET_NO":999,"REV_AT_EPOCH":555,"BSTAR":0.0026888,"MEAN_MOTION_DOT":0.0014839,"MEAN_MOTION_DDOT":0},{"OBJECT_NAME":"ECHOSTAR 25","OBJECT_ID":"2026-045A","EPOCH":"2026-04-04T17:18:32.707296","MEAN_MOTION":1.00270991,"ECCENTRICITY":0.0001729,"INCLINATION":0.035,"RA_OF_ASC_NODE":281.285,"ARG_OF_PERICENTER":153.5686,"MEAN_ANOMALY":248.9587,"EPHEMERIS_TYPE":0,"CLASSIFICATION_TYPE":"U","NORAD_CAT_ID":68126,"ELEMENT_SET_NO":999,"REV_AT_EPOCH":25,"BSTAR":0,"MEAN_MOTION_DOT":5.9e-7,"MEAN_MOTION_DDOT":0},{"OBJECT_NAME":"ICOR SV","OBJECT_ID":"2026-046A","EPOCH":"2026-04-04T21:32:54.794688","MEAN_MOTION":16.01613398,"ECCENTRICITY":0.0085624,"INCLINATION":123.0717,"RA_OF_ASC_NODE":326.0041,"ARG_OF_PERICENTER":238.0093,"MEAN_ANOMALY":121.2641,"EPHEMERIS_TYPE":0,"CLASSIFICATION_TYPE":"U","NORAD_CAT_ID":68127,"ELEMENT_SET_NO":999,"REV_AT_EPOCH":377,"BSTAR":0.00059478,"MEAN_MOTION_DOT":0.00536291,"MEAN_MOTION_DDOT":1.2315e-5},{"OBJECT_NAME":"FIREFLY ALPHA R/B","OBJECT_ID":"2026-046B","EPOCH":"2026-04-04T13:51:46.143360","MEAN_MOTION":15.57923912,"ECCENTRICITY":0.001735,"INCLINATION":123.0919,"RA_OF_ASC_NODE":319.2288,"ARG_OF_PERICENTER":30.6209,"MEAN_ANOMALY":329.5861,"EPHEMERIS_TYPE":0,"CLASSIFICATION_TYPE":"U","NORAD_CAT_ID":68128,"ELEMENT_SET_NO":999,"REV_AT_EPOCH":367,"BSTAR":0.00059832,"MEAN_MOTION_DOT":0.00045538,"MEAN_MOTION_DDOT":0},{"OBJECT_NAME":"GUOWANG GROUP 20 OBJECT A","OBJECT_ID":"2026-047A","EPOCH":"2026-04-04T02:24:09.516096","MEAN_MOTION":13.82826474,"ECCENTRICITY":6.61e-5,"INCLINATION":50.002,"RA_OF_ASC_NODE":327.8486,"ARG_OF_PERICENTER":106.3931,"MEAN_ANOMALY":253.7037,"EPHEMERIS_TYPE":0,"CLASSIFICATION_TYPE":"U","NORAD_CAT_ID":68129,"ELEMENT_SET_NO":999,"REV_AT_EPOCH":312,"BSTAR":5.0705e-5,"MEAN_MOTION_DOT":-8.8e-7,"MEAN_MOTION_DDOT":0},{"OBJECT_NAME":"GUOWANG GROUP 20 OBJECT B","OBJECT_ID":"2026-047B","EPOCH":"2026-04-01T05:04:40.456704","MEAN_MOTION":13.87767313,"ECCENTRICITY":1.339e-5,"INCLINATION":50.0054,"RA_OF_ASC_NODE":339.2252,"ARG_OF_PERICENTER":185.6237,"MEAN_ANOMALY":174.4659,"EPHEMERIS_TYPE":0,"CLASSIFICATION_TYPE":"U","NORAD_CAT_ID":68130,"ELEMENT_SET_NO":999,"REV_AT_EPOCH":271,"BSTAR":6.9791497e-5,"MEAN_MOTION_DOT":-6.2e-7,"MEAN_MOTION_DDOT":0},{"OBJECT_NAME":"GUOWANG GROUP 20 OBJECT C","OBJECT_ID":"2026-047C","EPOCH":"2026-04-02T12:08:18.567744","MEAN_MOTION":13.863205,"ECCENTRICITY":6.698e-5,"INCLINATION":50.0019,"RA_OF_ASC_NODE":334.0677,"ARG_OF_PERICENTER":236.5521,"MEAN_ANOMALY":123.5312,"EPHEMERIS_TYPE":0,"CLASSIFICATION_TYPE":"U","NORAD_CAT_ID":68131,"ELEMENT_SET_NO":999,"REV_AT_EPOCH":290,"BSTAR":4.2135642e-5,"MEAN_MOTION_DOT":-9.6e-7,"MEAN_MOTION_DDOT":0},{"OBJECT_NAME":"GUOWANG GROUP 20 OBJECT D","OBJECT_ID":"2026-047D","EPOCH":"2026-04-02T13:48:14.018400","MEAN_MOTION":13.8659404,"ECCENTRICITY":7.103e-5,"INCLINATION":50.0067,"RA_OF_ASC_NODE":333.7806,"ARG_OF_PERICENTER":245.036,"MEAN_ANOMALY":115.0463,"EPHEMERIS_TYPE":0,"CLASSIFICATION_TYPE":"U","NORAD_CAT_ID":68132,"ELEMENT_SET_NO":999,"REV_AT_EPOCH":290,"BSTAR":5.1916391e-5,"MEAN_MOTION_DOT":-8.4e-7,"MEAN_MOTION_DDOT":0},{"OBJECT_NAME":"GUOWANG GROUP 20 OBJECT E","OBJECT_ID":"2026-047E","EPOCH":"2026-04-03T00:06:50.722272","MEAN_MOTION":13.85521979,"ECCENTRICITY":8.265e-5,"INCLINATION":50.0078,"RA_OF_ASC_NODE":332.0369,"ARG_OF_PERICENTER":23.123,"MEAN_ANOMALY":336.9704,"EPHEMERIS_TYPE":0,"CLASSIFICATION_TYPE":"U","NORAD_CAT_ID":68133,"ELEMENT_SET_NO":999,"REV_AT_EPOCH":297,"BSTAR":4.8670636e-5,"MEAN_MOTION_DOT":-8.9e-7,"MEAN_MOTION_DDOT":0}]
